TIANQI-15               
1 49027U 21065B   26068.81163741  .00006722  00000+0  41179-3 0  9990
2 49027  34.9979 108.2420 0007067 250.7766 109.2180 15.09508085254244
STARLINK-3559           
1 51860U 22022J   26068.06608485  .00000158  00000+0  28007-4 0  9991
2 51860  53.2179  11.9159 0001356  89.8062 270.3085 15.08841221223029
